{"type": "FeatureCollection", "features": [ {"type": "Feature", "properties": {"norad_id": 34761, "name": "COSMOS 2251 DEB", "group": "cosmos-2251-debris", "lat": 26.15480526502952, "lon": 28.45065552807442, "alt_km": 741.5460367130172, "timestamp": "2025-12-03T04:52:30.033835+00:00", "meta": {"OBJECT_NAME": "COSMOS 2251 DEB", "OBJECT_ID": "1993-036AAF", "EPOCH": "2025-12-02T20:24:03.113856", "MEAN_MOTION": 14.37994342, "ECCENTRICITY": 0.0036097, "INCLINATION": 74.0289, "RA_OF_ASC_NODE": 21.0162, "ARG_OF_PERICENTER": 58.3816, "MEAN_ANOMALY": 302.0852, "EPHEMERIS_TYPE": 0, "CLASSIFICATION_TYPE": "U", "NORAD_CAT_ID": 34761, "ELEMENT_SET_NO": 999, "REV_AT_EPOCH": 87507, "BSTAR": 0.00069726, "MEAN_MOTION_DOT": 2.099e-05, "MEAN_MOTION_DDOT": 0}, "tle": {"line1": "1 34761U 93036AAF 25336.85003604  .00002099  00000+0  69726-3 0  9999", "line2": "2 34761  74.0289  21.0162 0036097  58.3816 302.0852 14.37994342875074"}}, "geometry": {"type": "Point", "coordinates": [28.45065552807442, 26.15480526502952]}}, {"type": "Feature", "properties": {"norad_id": 34784, "name": "COSMOS 2251 DEB", "group": "cosmos-2251-debris", "lat": -18.95469650710166, "lon": 168.26301796019877, "alt_km": 670.5800056777061, "timestamp": "2025-12-03T04:52:30.033846+00:00", "meta": {"OBJECT_NAME": "COSMOS 2251 DEB", "OBJECT_ID": "1993-036AAM", "EPOCH": "2025-12-02T18:06:16.710048", "MEAN_MOTION": 14.60704593, "ECCENTRICITY": 0.0049809, "INCLINATION": 74.0068, "RA_OF_ASC_NODE": 343.4686, "ARG_OF_PERICENTER": 155.7535, "MEAN_ANOMALY": 204.5992, "EPHEMERIS_TYPE": 0, "CLASSIFICATION_TYPE": "U", "NORAD_CAT_ID": 34784, "ELEMENT_SET_NO": 999, "REV_AT_EPOCH": 88389, "BSTAR": 0.0006041, "MEAN_MOTION_DOT": 2.966e-05, "MEAN_MOTION_DDOT": 0}, "tle": {"line1": "1 34784U 93036AAM 25336.75436007  .00002966  00000+0  60410-3 0  9994", "line2": "2 34784  74.0068 343.4686 0049809 155.7535 204.5992 14.60704593883894"}}, "geometry": {"type": "Point", "coordinates": [168.26301796019877, -18.95469650710166]}}, {"type": "Feature", "properties": {"norad_id": 34790, "name": "COSMOS 2251 DEB", "group": "cosmos-2251-debris", "lat": 51.4716651772985, "lon": 59.83375363919134, "alt_km": 873.1561957133899, "timestamp": "2025-12-03T04:52:30.033856+00:00", "meta": {"OBJECT_NAME": "COSMOS 2251 DEB", "OBJECT_ID": "1993-036AAT", "EPOCH": "2025-12-02T20:07:24.487968", "MEAN_MOTION": 14.2457003, "ECCENTRICITY": 0.0100684, "INCLINATION": 74.0549, "RA_OF_ASC_NODE": 261.5318, "ARG_OF_PERICENTER": 325.2539, "MEAN_ANOMALY": 90.5192, "EPHEMERIS_TYPE": 0, "CLASSIFICATION_TYPE": "U", "NORAD_CAT_ID": 34790, "ELEMENT_SET_NO": 999, "REV_AT_EPOCH": 86432, "BSTAR": 0.001378, "MEAN_MOTION_DOT": 3.347e-05, "MEAN_MOTION_DDOT": 0}, "tle": {"line1": "1 34790U 93036AAT 25336.83847787  .00003347  00000+0  13780-2 0  9992", "line2": "2 34790  74.0549 261.5318 0100684 325.2539  90.5192 14.24570030864323"}}, "geometry": {"type": "Point", "coordinates": [59.83375363919134, 51.4716651772985]}}, {"type": "Feature", "properties": {"norad_id": 34792, "name": "COSMOS 2251 DEB", "group": "cosmos-2251-debris", "lat": 71.27238341993058, "lon": -114.48257516383089, "alt_km": 707.7781573023112, "timestamp": "2025-12-03T04:52:30.033866+00:00", "meta": {"OBJECT_NAME": "COSMOS 2251 DEB", "OBJECT_ID": "1993-036AAV", "EPOCH": "2025-12-02T17:30:08.526240", "MEAN_MOTION": 14.55826007, "ECCENTRICITY": 0.0012625, "INCLINATION": 74.018, "RA_OF_ASC_NODE": 188.7053, "ARG_OF_PERICENTER": 282.273, "MEAN_ANOMALY": 195.341, "EPHEMERIS_TYPE": 0, "CLASSIFICATION_TYPE": "U", "NORAD_CAT_ID": 34792, "ELEMENT_SET_NO": 999, "REV_AT_EPOCH": 87504, "BSTAR": 0.0010939, "MEAN_MOTION_DOT": 4.775e-05, "MEAN_MOTION_DDOT": 0}, "tle": {"line1": "1 34792U 93036AAV 25336.72926535  .00004775  00000+0  10939-2 0  9990", "line2": "2 34792  74.0180 188.7053 0012625 282.2730 195.3410 14.55826007875044"}}, "geometry": {"type": "Point", "coordinates": [-114.48257516383089, 71.27238341993058]}}, {"type": "Feature", "properties": {"norad_id": 34793, "name": "COSMOS 2251 DEB", "group": "cosmos-2251-debris", "lat": 73.96150283344552, "lon": 1.6579110348508295, "alt_km": 723.6411475167688, "timestamp": "2025-12-03T04:52:30.033876+00:00", "meta": {"OBJECT_NAME": "COSMOS 2251 DEB", "OBJECT_ID": "1993-036AAW", "EPOCH": "2025-12-02T20:23:42.651744", "MEAN_MOTION": 14.38616138, "ECCENTRICITY": 0.0049946, "INCLINATION": 74.0026, "RA_OF_ASC_NODE": 268.6372, "ARG_OF_PERICENTER": 65.4256, "MEAN_ANOMALY": 356.1865, "EPHEMERIS_TYPE": 0, "CLASSIFICATION_TYPE": "U", "NORAD_CAT_ID": 34793, "ELEMENT_SET_NO": 999, "REV_AT_EPOCH": 87188, "BSTAR": 0.0003579, "MEAN_MOTION_DOT": 1.086e-05, "MEAN_MOTION_DDOT": 0}, "tle": {"line1": "1 34793U 93036AAW 25336.84979921  .00001086  00000+0  35790-3 0  9996", "line2": "2 34793  74.0026 268.6372 0049946  65.4256 356.1865 14.38616138871888"}}, "geometry": {"type": "Point", "coordinates": [1.6579110348508295, 73.96150283344552]}}, {"type": "Feature", "properties": {"norad_id": 34796, "name": "COSMOS 2251 DEB", "group": "cosmos-2251-debris", "lat": -19.70211703551786, "lon": 60.10814298512488, "alt_km": 787.5369215253977, "timestamp": "2025-12-03T04:52:30.033886+00:00", "meta": {"OBJECT_NAME": "COSMOS 2251 DEB", "OBJECT_ID": "1993-036AAZ", "EPOCH": "2025-12-02T10:15:39.153600", "MEAN_MOTION": 14.48595971, "ECCENTRICITY": 0.0100085, "INCLINATION": 74.031, "RA_OF_ASC_NODE": 235.676, "ARG_OF_PERICENTER": 340.022, "MEAN_ANOMALY": 138.15, "EPHEMERIS_TYPE": 0, "CLASSIFICATION_TYPE": "U", "NORAD_CAT_ID": 34796, "ELEMENT_SET_NO": 999, "REV_AT_EPOCH": 87878, "BSTAR": 0.00098543833, "MEAN_MOTION_DOT": 3.92e-05, "MEAN_MOTION_DDOT": 0}, "tle": {"line1": "1 34796U 93036AAZ 25336.42753650  .00003920  00000+0  98544-3 0  9997", "line2": "2 34796  74.0310 235.6760 0100085 340.0220 138.1500 14.48595971878789"}}, "geometry": {"type": "Point", "coordinates": [60.10814298512488, -19.70211703551786]}}, {"type": "Feature", "properties": {"norad_id": 34797, "name": "COSMOS 2251 DEB", "group": "cosmos-2251-debris", "lat": 11.387019915378847, "lon": -65.57094319803474, "alt_km": 728.6451630776419, "timestamp": "2025-12-03T04:52:30.033897+00:00", "meta": {"OBJECT_NAME": "COSMOS 2251 DEB", "OBJECT_ID": "1993-036ABA", "EPOCH": "2025-12-02T16:26:28.608576", "MEAN_MOTION": 14.42535201, "ECCENTRICITY": 0.0072525, "INCLINATION": 73.9763, "RA_OF_ASC_NODE": 118.7115, "ARG_OF_PERICENTER": 233.726, "MEAN_ANOMALY": 125.7182, "EPHEMERIS_TYPE": 0, "CLASSIFICATION_TYPE": "U", "NORAD_CAT_ID": 34797, "ELEMENT_SET_NO": 999, "REV_AT_EPOCH": 87270, "BSTAR": 0.0028458, "MEAN_MOTION_DOT": 9.728e-05, "MEAN_MOTION_DDOT": 0}, "tle": {"line1": "1 34797U 93036ABA 25336.68505334  .00009728  00000+0  28458-2 0  9998", "line2": "2 34797  73.9763 118.7115 0072525 233.7260 125.7182 14.42535201872702"}}, "geometry": {"type": "Point", "coordinates": [-65.57094319803474, 11.387019915378847]}}, {"type": "Feature", "properties": {"norad_id": 34814, "name": "COSMOS 2251 DEB", "group": "cosmos-2251-debris", "lat": -7.329907029681682, "lon": -19.005772517156547, "alt_km": 791.5906068723607, "timestamp": "2025-12-03T04:52:30.033907+00:00", "meta": {"OBJECT_NAME": "COSMOS 2251 DEB", "OBJECT_ID": "1993-036ABD", "EPOCH": "2025-12-02T11:13:46.501248", "MEAN_MOTION": 14.36815971, "ECCENTRICITY": 0.00568423, "INCLINATION": 73.8957, "RA_OF_ASC_NODE": 344.4866, "ARG_OF_PERICENTER": 235.7348, "MEAN_ANOMALY": 274.6986, "EPHEMERIS_TYPE": 0, "CLASSIFICATION_TYPE": "U", "NORAD_CAT_ID": 34814, "ELEMENT_SET_NO": 999, "REV_AT_EPOCH": 87185, "BSTAR": 0.0010643945, "MEAN_MOTION_DOT": 3.176e-05, "MEAN_MOTION_DDOT": 0}, "tle": {"line1": "1 34814U 93036ABD 25336.46789932  .00003176  00000+0  10644-2 0  9991", "line2": "2 34814  73.8957 344.4866 0056842 235.7348 274.6986 14.36815971871859"}}, "geometry": {"type": "Point", "coordinates": [-19.005772517156547, -7.329907029681682]}}, {"type": "Feature", "properties": {"norad_id": 34815, "name": "COSMOS 2251 DEB", "group": "cosmos-2251-debris", "lat": 10.325820717228405, "lon": 77.53509483195478, "alt_km": 676.1139221424328, "timestamp": "2025-12-03T04:52:30.033918+00:00", "meta": {"OBJECT_NAME": "COSMOS 2251 DEB", "OBJECT_ID": "1993-036ABE", "EPOCH": "2025-12-02T05:22:05.386080", "MEAN_MOTION": 14.78056842, "ECCENTRICITY": 0.0059065, "INCLINATION": 74.0457, "RA_OF_ASC_NODE": 262.4443, "ARG_OF_PERICENTER": 333.8763, "MEAN_ANOMALY": 25.9434, "EPHEMERIS_TYPE": 0, "CLASSIFICATION_TYPE": "U", "NORAD_CAT_ID": 34815, "ELEMENT_SET_NO": 999, "REV_AT_EPOCH": 88472, "BSTAR": 0.0014689, "MEAN_MOTION_DOT": 0.0001091, "MEAN_MOTION_DDOT": 0}, "tle": {"line1": "1 34815U 93036ABE 25336.22367345  .00010910  00000+0  14689-2 0  9993", "line2": "2 34815  74.0457 262.4443 0059065 333.8763  25.9434 14.78056842884724"}}, "geometry": {"type": "Point", "coordinates": [77.53509483195478, 10.325820717228405]}}, {"type": "Feature", "properties": {"norad_id": 34816, "name": "COSMOS 2251 DEB", "group": "cosmos-2251-debris", "lat": -72.55042172699294, "lon": 91.80823676601182, "alt_km": 871.7572364793787, "timestamp": "2025-12-03T04:52:30.033929+00:00", "meta": {"OBJECT_NAME": "COSMOS 2251 DEB", "OBJECT_ID": "1993-036ABF", "EPOCH": "2025-12-02T18:47:15.915840", "MEAN_MOTION": 13.58280503, "ECCENTRICITY": 0.0373802, "INCLINATION": 73.8861, "RA_OF_ASC_NODE": 159.3673, "ARG_OF_PERICENTER": 225.5554, "MEAN_ANOMALY": 153.4683, "EPHEMERIS_TYPE": 0, "CLASSIFICATION_TYPE": "U", "NORAD_CAT_ID": 34816, "ELEMENT_SET_NO": 999, "REV_AT_EPOCH": 82648, "BSTAR": 0.0012092, "MEAN_MOTION_DOT": 1.362e-05, "MEAN_MOTION_DDOT": 0}, "tle": {"line1": "1 34816U 93036ABF 25336.78282310  .00001362  00000+0  12092-2 0  9990", "line2": "2 34816  73.8861 159.3673 0373802 225.5554 153.4683 13.58280503826485"}}, "geometry": {"type": "Point", "coordinates": [91.80823676601182, -72.55042172699294]}}]}